{
 "type": "FeatureCollection",
 "crs": {
  "type": "name",
  "properties": {
   "name": "EPSG:25832"
  }
 },
 "features": [
  {
   "type": "Feature",
   "geometry": {
    "type": "Polygon",
    "coordinates": [
     [
      [
       698663.43,
       5487172.95
      ],
      [
       698662.43,
       5487168.35
      ],
      [
       698659.53,
       5487140.05
      ],
      [
       698671.03,
       5487141.65
      ],
      [
       698681.53,
       5487141.45
      ],
      [
       698683.83,
       5487168.65
      ],
      [
       698663.43,
       5487172.95
      ]
     ]
    ]
   },
   "properties": {
    "id": "A01",
    "zone": "Altstadt",
    "split": "dev",
    "haus_id": "DEBY_LOD2_5484094",
    "dichte": 0.372,
    "gefaelle": 0.059,
    "altstadtrand": false,
    "flaeche_m2": 639.5,
    "grenze_quelle": "Parzellarkarte (vektorisiert), nicht amtlich"
   }
  },
  {
   "type": "Feature",
   "geometry": {
    "type": "Polygon",
    "coordinates": [
     [
      [
       698820.4,
       5486966.97
      ],
      [
       698818.4,
       5486960.77
      ],
      [
       698819.7,
       5486956.57
      ],
      [
       698822.7,
       5486954.27
      ],
      [
       698830.0,
       5486952.97
      ],
      [
       698833.3,
       5486962.27
      ],
      [
       698820.4,
       5486966.97
      ]
     ]
    ]
   },
   "properties": {
    "id": "A02",
    "zone": "Altstadt",
    "split": "dev",
    "haus_id": "DEBY_LOD2_5484337",
    "dichte": 0.37,
    "gefaelle": 0.06,
    "altstadtrand": false,
    "flaeche_m2": 137.2,
    "grenze_quelle": "Parzellarkarte (vektorisiert), nicht amtlich"
   }
  },
  {
   "type": "Feature",
   "geometry": {
    "type": "Polygon",
    "coordinates": [
     [
      [
       698093.38,
       5487134.02
      ],
      [
       698089.68,
       5487118.52
      ],
      [
       698100.98,
       5487115.82
      ],
      [
       698113.38,
       5487119.82
      ],
      [
       698121.78,
       5487120.02
      ],
      [
       698122.38,
       5487120.92
      ],
      [
       698123.48,
       5487124.02
      ],
      [
       698123.18,
       5487124.62
      ],
      [
       698107.08,
       5487130.52
      ],
      [
       698093.38,
       5487134.02
      ]
     ]
    ]
   },
   "properties": {
    "id": "A03",
    "zone": "Altstadt",
    "split": "test",
    "haus_id": "DEBY_LOD2_5484464",
    "dichte": 0.35,
    "gefaelle": 0.49,
    "altstadtrand": false,
    "flaeche_m2": 371.2,
    "grenze_quelle": "Parzellarkarte (vektorisiert), nicht amtlich"
   }
  },
  {
   "type": "Feature",
   "geometry": {
    "type": "Polygon",
    "coordinates": [
     [
      [
       698638.86,
       5487094.56
      ],
      [
       698642.36,
       5487076.56
      ],
      [
       698641.96,
       5487075.96
      ],
      [
       698639.66,
       5487076.36
      ],
      [
       698638.86,
       5487076.06
      ],
      [
       698653.26,
       5487048.46
      ],
      [
       698658.46,
       5487050.66
      ],
      [
       698666.46,
       5487078.06
      ],
      [
       698665.66,
       5487082.26
      ],
      [
       698658.66,
       5487091.76
      ],
      [
       698638.86,
       5487094.56
      ]
     ]
    ]
   },
   "properties": {
    "id": "A04",
    "zone": "Altstadt",
    "split": "dev",
    "haus_id": "DEBY_LOD2_5484371",
    "dichte": 0.475,
    "gefaelle": 0.133,
    "altstadtrand": false,
    "flaeche_m2": 815.8,
    "grenze_quelle": "Parzellarkarte (vektorisiert), nicht amtlich"
   }
  },
  {
   "type": "Feature",
   "geometry": {
    "type": "Polygon",
    "coordinates": [
     [
      [
       698164.59,
       5487166.92
      ],
      [
       698165.29,
       5487134.62
      ],
      [
       698171.29,
       5487134.22
      ],
      [
       698172.29,
       5487133.32
      ],
      [
       698196.69,
       5487133.62
      ],
      [
       698228.39,
       5487137.02
      ],
      [
       698227.69,
       5487145.12
      ],
      [
       698206.89,
       5487142.72
      ],
      [
       698206.29,
       5487152.12
      ],
      [
       698194.59,
       5487150.42
      ],
      [
       698189.29,
       5487151.02
      ],
      [
       698188.89,
       5487151.92
      ],
      [
       698189.89,
       5487153.02
      ],
      [
       698189.69,
       5487154.22
      ],
      [
       698172.69,
       5487153.12
      ],
      [
       698172.19,
       5487153.92
      ],
      [
       698171.39,
       5487166.22
      ],
      [
       698164.59,
       5487166.92
      ]
     ]
    ]
   },
   "properties": {
    "id": "A05",
    "zone": "Altstadt",
    "split": "test",
    "haus_id": "DEBY_LOD2_5483627",
    "dichte": 0.478,
    "gefaelle": 0.103,
    "altstadtrand": false,
    "flaeche_m2": 1046.0,
    "grenze_quelle": "Parzellarkarte (vektorisiert), nicht amtlich"
   }
  },
  {
   "type": "Feature",
   "geometry": {
    "type": "Polygon",
    "coordinates": [
     [
      [
       698233.67,
       5487046.35
      ],
      [
       698227.67,
       5487044.15
      ],
      [
       698230.97,
       5487040.25
      ],
      [
       698230.67,
       5487039.65
      ],
      [
       698231.57,
       5487038.65
      ],
      [
       698233.97,
       5487040.15
      ],
      [
       698236.07,
       5487037.25
      ],
      [
       698237.77,
       5487038.95
      ],
      [
       698239.07,
       5487037.75
      ],
      [
       698237.07,
       5487035.95
      ],
      [
       698240.57,
       5487029.75
      ],
      [
       698239.07,
       5487027.95
      ],
      [
       698260.57,
       5486997.85
      ],
      [
       698262.97,
       5486996.25
      ],
      [
       698264.97,
       5486997.75
      ],
      [
       698256.87,
       5487008.85
      ],
      [
       698263.37,
       5487016.05
      ],
      [
       698262.87,
       5487022.25
      ],
      [
       698262.57,
       5487022.75
      ],
      [
       698256.87,
       5487022.55
      ],
      [
       698256.47,
       5487023.05
      ],
      [
       698266.47,
       5487034.35
      ],
      [
       698264.27,
       5487036.25
      ],
      [
       698258.47,
       5487029.75
      ],
      [
       698248.37,
       5487038.25
      ],
      [
       698244.07,
       5487033.85
      ],
      [
       698233.67,
       5487046.35
      ]
     ]
    ]
   },
   "properties": {
    "id": "A06",
    "zone": "Altstadt",
    "split": "test",
    "haus_id": "DEBY_LOD2_5483679",
    "dichte": 0.419,
    "gefaelle": 0.016,
    "altstadtrand": false,
    "flaeche_m2": 554.1,
    "grenze_quelle": "Parzellarkarte (vektorisiert), nicht amtlich"
   }
  },
  {
   "type": "Feature",
   "geometry": {
    "type": "Polygon",
    "coordinates": [
     [
      [
       698415.84,
       5487216.01
      ],
      [
       698412.84,
       5487215.41
      ],
      [
       698410.64,
       5487213.61
      ],
      [
       698409.94,
       5487213.81
      ],
      [
       698406.34,
       5487210.41
      ],
      [
       698408.54,
       5487206.61
      ],
      [
       698411.04,
       5487203.81
      ],
      [
       698411.64,
       5487203.81
      ],
      [
       698415.54,
       5487211.41
      ],
      [
       698419.54,
       5487209.11
      ],
      [
       698420.34,
       5487209.51
      ],
      [
       698422.04,
       5487208.71
      ],
      [
       698422.84,
       5487209.31
      ],
      [
       698426.24,
       5487208.81
      ],
      [
       698426.64,
       5487208.11
      ],
      [
       698425.54,
       5487202.11
      ],
      [
       698441.24,
       5487198.91
      ],
      [
       698441.64,
       5487198.31
      ],
      [
       698439.24,
       5487196.11
      ],
      [
       698427.94,
       5487198.51
      ],
      [
       698426.24,
       5487196.71
      ],
      [
       698415.54,
       5487191.51
      ],
      [
       698410.54,
       5487180.81
      ],
      [
       698410.34,
       5487179.31
      ],
      [
       698413.54,
       5487178.01
      ],
      [
       698416.84,
       5487185.01
      ],
      [
       698422.04,
       5487182.91
      ],
      [
       698424.34,
       5487187.21
      ],
      [
       698424.64,
       5487188.91
      ],
      [
       698426.34,
       5487190.11
      ],
      [
       698427.84,
       5487190.01
      ],
      [
       698429.24,
       5487189.01
      ],
      [
       698430.24,
       5487190.21
      ],
      [
       698439.94,
       5487186.01
      ],
      [
       698440.44,
       5487185.31
      ],
      [
       698432.74,
       5487167.91
      ],
      [
       698436.84,
       5487166.01
      ],
      [
       698445.54,
       5487186.11
      ],
      [
       698443.74,
       5487187.51
      ],
      [
       698444.24,
       5487189.01
      ],
      [
       698444.84,
       5487189.81
      ],
      [
       698446.74,
       5487189.21
      ],
      [
       698447.74,
       5487190.61
      ],
      [
       698447.44,
       5487191.11
      ],
      [
       698454.34,
       5487207.61
      ],
      [
       698439.74,
       5487214.61
      ],
      [
       698415.84,
       5487216.01
      ]
     ]
    ]
   },
   "properties": {
    "id": "A07",
    "zone": "Altstadt",
    "split": "test",
    "haus_id": "DEBY_LOD2_5484942",
    "dichte": 0.444,
    "gefaelle": 0.145,
    "altstadtrand": false,
    "flaeche_m2": 926.9,
    "grenze_quelle": "Parzellarkarte (vektorisiert), nicht amtlich"
   }
  },
  {
   "type": "Feature",
   "geometry": {
    "type": "Polygon",
    "coordinates": [
     [
      [
       698476.14,
       5487117.54
      ],
      [
       698470.64,
       5487096.94
      ],
      [
       698467.44,
       5487067.94
      ],
      [
       698479.94,
       5487066.84
      ],
      [
       698480.84,
       5487071.54
      ],
      [
       698479.84,
       5487072.24
      ],
      [
       698479.84,
       5487072.94
      ],
      [
       698481.14,
       5487082.34
      ],
      [
       698476.94,
       5487083.34
      ],
      [
       698477.24,
       5487086.84
      ],
      [
       698475.94,
       5487087.54
      ],
      [
       698478.94,
       5487103.84
      ],
      [
       698473.54,
       5487105.14
      ],
      [
       698476.64,
       5487116.94
      ],
      [
       698476.14,
       5487117.54
      ]
     ]
    ]
   },
   "properties": {
    "id": "A08",
    "zone": "Altstadt",
    "split": "dev",
    "haus_id": "DEBY_LOD2_5484893",
    "dichte": 0.556,
    "gefaelle": 0.093,
    "altstadtrand": false,
    "flaeche_m2": 347.3,
    "grenze_quelle": "Parzellarkarte (vektorisiert), nicht amtlich"
   }
  },
  {
   "type": "Feature",
   "geometry": {
    "type": "Polygon",
    "coordinates": [
     [
      [
       698460.67,
       5486985.2
      ],
      [
       698456.57,
       5486965.8
      ],
      [
       698457.07,
       5486964.8
      ],
      [
       698456.07,
       5486957.6
      ],
      [
       698457.17,
       5486956.8
      ],
      [
       698483.77,
       5486949.8
      ],
      [
       698485.57,
       5486969.9
      ],
      [
       698485.17,
       5486971.1
      ],
      [
       698486.57,
       5486981.9
      ],
      [
       698460.67,
       5486985.2
      ]
     ]
    ]
   },
   "properties": {
    "id": "A09",
    "zone": "Altstadt",
    "split": "dev",
    "haus_id": "DEBY_LOD2_5484840",
    "dichte": 0.399,
    "gefaelle": 0.051,
    "altstadtrand": false,
    "flaeche_m2": 834.7,
    "grenze_quelle": "Parzellarkarte (vektorisiert), nicht amtlich"
   }
  },
  {
   "type": "Feature",
   "geometry": {
    "type": "Polygon",
    "coordinates": [
     [
      [
       698529.38,
       5487162.89
      ],
      [
       698524.88,
       5487135.99
      ],
      [
       698535.28,
       5487134.09
      ],
      [
       698535.68,
       5487133.09
      ],
      [
       698534.38,
       5487126.39
      ],
      [
       698538.38,
       5487125.79
      ],
      [
       698539.98,
       5487133.19
      ],
      [
       698540.68,
       5487142.19
      ],
      [
       698541.48,
       5487143.19
      ],
      [
       698542.68,
       5487157.99
      ],
      [
       698541.68,
       5487156.79
      ],
      [
       698535.58,
       5487157.39
      ],
      [
       698535.48,
       5487161.99
      ],
      [
       698529.38,
       5487162.89
      ]
     ]
    ]
   },
   "properties": {
    "id": "A10",
    "zone": "Altstadt",
    "split": "test",
    "haus_id": "DEBY_LOD2_5484906",
    "dichte": 0.367,
    "gefaelle": 0.045,
    "altstadtrand": false,
    "flaeche_m2": 403.0,
    "grenze_quelle": "Parzellarkarte (vektorisiert), nicht amtlich"
   }
  },
  {
   "type": "Feature",
   "geometry": {
    "type": "Polygon",
    "coordinates": [
     [
      [
       698510.18,
       5487207.58
      ],
      [
       698508.98,
       5487204.68
      ],
      [
       698511.08,
       5487203.38
      ],
      [
       698509.08,
       5487197.58
      ],
      [
       698514.98,
       5487195.88
      ],
      [
       698516.38,
       5487198.98
      ],
      [
       698519.08,
       5487198.08
      ],
      [
       698528.98,
       5487196.68
      ],
      [
       698529.98,
       5487203.88
      ],
      [
       698510.18,
       5487207.58
      ]
     ]
    ]
   },
   "properties": {
    "id": "A11",
    "zone": "Altstadt",
    "split": "dev",
    "haus_id": "DEBY_LOD2_5484918",
    "dichte": 0.511,
    "gefaelle": 0.075,
    "altstadtrand": false,
    "flaeche_m2": 165.8,
    "grenze_quelle": "Parzellarkarte (vektorisiert), nicht amtlich"
   }
  },
  {
   "type": "Feature",
   "geometry": {
    "type": "Polygon",
    "coordinates": [
     [
      [
       698296.12,
       5487006.95
      ],
      [
       698270.42,
       5486990.65
      ],
      [
       698268.72,
       5486992.45
      ],
      [
       698267.62,
       5486992.45
      ],
      [
       698266.32,
       5486990.95
      ],
      [
       698266.32,
       5486989.85
      ],
      [
       698287.72,
       5486959.65
      ],
      [
       698288.32,
       5486959.65
      ],
      [
       698289.62,
       5486957.95
      ],
      [
       698290.22,
       5486958.75
      ],
      [
       698277.22,
       5486977.85
      ],
      [
       698289.02,
       5486985.75
      ],
      [
       698286.02,
       5486990.45
      ],
      [
       698286.42,
       5486991.05
      ],
      [
       698300.52,
       5487000.15
      ],
      [
       698296.12,
       5487006.95
      ]
     ]
    ]
   },
   "properties": {
    "id": "A12",
    "zone": "Altstadt",
    "split": "dev",
    "haus_id": "DEBY_LOD2_108783827",
    "dichte": 0.361,
    "gefaelle": 0.025,
    "altstadtrand": false,
    "flaeche_m2": 427.1,
    "grenze_quelle": "Parzellarkarte (vektorisiert), nicht amtlich"
   }
  },
  {
   "type": "Feature",
   "geometry": {
    "type": "Polygon",
    "coordinates": [
     [
      [
       698792.38,
       5486955.9
      ],
      [
       698788.38,
       5486927.1
      ],
      [
       698819.78,
       5486919.2
      ],
      [
       698822.98,
       5486947.0
      ],
      [
       698808.88,
       5486949.4
      ],
      [
       698792.38,
       5486955.9
      ]
     ]
    ]
   },
   "properties": {
    "id": "A13",
    "zone": "Altstadt",
    "split": "dev",
    "haus_id": "DEBY_LOD2_107455277",
    "dichte": 0.423,
    "gefaelle": 0.105,
    "altstadtrand": false,
    "flaeche_m2": 881.5,
    "grenze_quelle": "Parzellarkarte (vektorisiert), nicht amtlich"
   }
  },
  {
   "type": "Feature",
   "geometry": {
    "type": "Polygon",
    "coordinates": [
     [
      [
       698478.69,
       5487258.93
      ],
      [
       698476.19,
       5487250.83
      ],
      [
       698470.19,
       5487252.03
      ],
      [
       698468.99,
       5487241.33
      ],
      [
       698480.09,
       5487235.33
      ],
      [
       698480.49,
       5487234.73
      ],
      [
       698479.09,
       5487231.73
      ],
      [
       698485.29,
       5487231.43
      ],
      [
       698499.29,
       5487233.93
      ],
      [
       698503.69,
       5487252.43
      ],
      [
       698478.69,
       5487258.93
      ]
     ]
    ]
   },
   "properties": {
    "id": "A14",
    "zone": "Altstadt",
    "split": "dev",
    "haus_id": "DEBY_LOD2_5483938",
    "dichte": 0.472,
    "gefaelle": 0.058,
    "altstadtrand": false,
    "flaeche_m2": 657.5,
    "grenze_quelle": "Parzellarkarte (vektorisiert), nicht amtlich"
   }
  },
  {
   "type": "Feature",
   "geometry": {
    "type": "Polygon",
    "coordinates": [
     [
      [
       698283.54,
       5487794.82
      ],
      [
       698287.34,
       5487772.22
      ],
      [
       698293.24,
       5487773.22
      ],
      [
       698326.24,
       5487772.22
      ],
      [
       698327.64,
       5487771.52
      ],
      [
       698342.14,
       5487770.02
      ],
      [
       698353.04,
       5487768.02
      ],
      [
       698352.44,
       5487789.02
      ],
      [
       698283.54,
       5487794.82
      ]
     ]
    ]
   },
   "properties": {
    "id": "A15",
    "zone": "Altstadt",
    "split": "dev",
    "haus_id": "DEBY_LOD2_5485492",
    "dichte": 0.31,
    "gefaelle": 0.06,
    "altstadtrand": true,
    "flaeche_m2": 1355.1,
    "grenze_quelle": "Parzellarkarte (vektorisiert), nicht amtlich"
   }
  },
  {
   "type": "Feature",
   "geometry": {
    "type": "Polygon",
    "coordinates": [
     [
      [
       698789.75,
       5486997.29
      ],
      [
       698779.65,
       5486968.89
      ],
      [
       698779.95,
       5486968.29
      ],
      [
       698789.15,
       5486965.09
      ],
      [
       698789.75,
       5486965.39
      ],
      [
       698799.35,
       5486993.49
      ],
      [
       698797.65,
       5486994.69
      ],
      [
       698789.75,
       5486997.29
      ]
     ]
    ]
   },
   "properties": {
    "id": "A16",
    "zone": "Altstadt",
    "split": "dev",
    "haus_id": "DEBY_LOD2_5485564",
    "dichte": 0.316,
    "gefaelle": 0.071,
    "altstadtrand": true,
    "flaeche_m2": 321.6,
    "grenze_quelle": "Parzellarkarte (vektorisiert), nicht amtlich"
   }
  },
  {
   "type": "Feature",
   "geometry": {
    "type": "Polygon",
    "coordinates": [
     [
      [
       698870.95,
       5486975.11
      ],
      [
       698860.95,
       5486946.81
      ],
      [
       698872.45,
       5486943.81
      ],
      [
       698881.75,
       5486969.91
      ],
      [
       698870.95,
       5486975.11
      ]
     ]
    ]
   },
   "properties": {
    "id": "A17",
    "zone": "Altstadt",
    "split": "dev",
    "haus_id": "DEBY_LOD2_5484353",
    "dichte": 0.318,
    "gefaelle": 0.031,
    "altstadtrand": true,
    "flaeche_m2": 342.8,
    "grenze_quelle": "Parzellarkarte (vektorisiert), nicht amtlich"
   }
  },
  {
   "type": "Feature",
   "geometry": {
    "type": "Polygon",
    "coordinates": [
     [
      [
       699118.3,
       5486763.85
      ],
      [
       699115.2,
       5486760.15
      ],
      [
       699117.8,
       5486757.55
      ],
      [
       699108.4,
       5486746.05
      ],
      [
       699119.5,
       5486736.55
      ],
      [
       699132.4,
       5486751.85
      ],
      [
       699118.3,
       5486763.85
      ]
     ]
    ]
   },
   "properties": {
    "id": "A18",
    "zone": "Altstadt",
    "split": "test",
    "haus_id": "DEBY_LOD2_5521952",
    "dichte": 0.308,
    "gefaelle": 0.009,
    "altstadtrand": true,
    "flaeche_m2": 313.2,
    "grenze_quelle": "Parzellarkarte (vektorisiert), nicht amtlich"
   }
  },
  {
   "type": "Feature",
   "geometry": {
    "type": "Polygon",
    "coordinates": [
     [
      [
       698557.41,
       5486111.62
      ],
      [
       698541.81,
       5486107.62
      ],
      [
       698542.31,
       5486104.62
      ],
      [
       698541.81,
       5486103.82
      ],
      [
       698535.41,
       5486102.02
      ],
      [
       698542.21,
       5486075.72
      ],
      [
       698566.31,
       5486080.82
      ],
      [
       698558.21,
       5486110.92
      ],
      [
       698557.41,
       5486111.62
      ]
     ]
    ]
   },
   "properties": {
    "id": "A19",
    "zone": "Altstadt",
    "split": "dev",
    "haus_id": "DEBY_LOD2_5482276",
    "dichte": 0.319,
    "gefaelle": 0.288,
    "altstadtrand": true,
    "flaeche_m2": 742.8,
    "grenze_quelle": "Parzellarkarte (vektorisiert), nicht amtlich"
   }
  },
  {
   "type": "Feature",
   "geometry": {
    "type": "Polygon",
    "coordinates": [
     [
      [
       698387.89,
       5486279.01
      ],
      [
       698387.79,
       5486248.51
      ],
      [
       698461.49,
       5486248.41
      ],
      [
       698461.69,
       5486278.61
      ],
      [
       698387.89,
       5486279.01
      ]
     ]
    ]
   },
   "properties": {
    "id": "A20",
    "zone": "Altstadt",
    "split": "dev",
    "haus_id": "DEBY_LOD2_5482332",
    "dichte": 0.307,
    "gefaelle": 0.121,
    "altstadtrand": true,
    "flaeche_m2": 2238.4,
    "grenze_quelle": "Parzellarkarte (vektorisiert), nicht amtlich"
   }
  },
  {
   "type": "Feature",
   "geometry": {
    "type": "Polygon",
    "coordinates": [
     [
      [
       698771.51,
       5487455.46
      ],
      [
       698743.11,
       5487406.26
      ],
      [
       698743.21,
       5487405.56
      ],
      [
       698760.01,
       5487403.66
      ],
      [
       698775.51,
       5487400.96
      ],
      [
       698785.51,
       5487417.86
      ],
      [
       698780.51,
       5487421.06
      ],
      [
       698796.81,
       5487448.36
      ],
      [
       698771.51,
       5487455.46
      ]
     ]
    ]
   },
   "properties": {
    "id": "S01",
    "zone": "Siedlung",
    "split": "test",
    "haus_id": "DEBY_LOD2_5484252",
    "dichte": 0.215,
    "gefaelle": 0.027,
    "altstadtrand": false,
    "flaeche_m2": 1513.3,
    "grenze_quelle": "Parzellarkarte (vektorisiert), nicht amtlich"
   }
  },
  {
   "type": "Feature",
   "geometry": {
    "type": "Polygon",
    "coordinates": [
     [
      [
       699149.96,
       5486809.55
      ],
      [
       699146.16,
       5486803.15
      ],
      [
       699139.96,
       5486806.55
      ],
      [
       699139.46,
       5486807.75
      ],
      [
       699130.16,
       5486793.25
      ],
      [
       699143.06,
       5486781.85
      ],
      [
       699156.76,
       5486805.45
      ],
      [
       699149.96,
       5486809.55
      ]
     ]
    ]
   },
   "properties": {
    "id": "S02",
    "zone": "Siedlung",
    "split": "dev",
    "haus_id": "DEBY_LOD2_5521954",
    "dichte": 0.268,
    "gefaelle": 0.042,
    "altstadtrand": false,
    "flaeche_m2": 361.0,
    "grenze_quelle": "Parzellarkarte (vektorisiert), nicht amtlich"
   }
  },
  {
   "type": "Feature",
   "geometry": {
    "type": "Polygon",
    "coordinates": [
     [
      [
       699036.55,
       5486500.26
      ],
      [
       699026.65,
       5486455.86
      ],
      [
       699044.65,
       5486452.86
      ],
      [
       699052.65,
       5486495.36
      ],
      [
       699036.55,
       5486500.26
      ]
     ]
    ]
   },
   "properties": {
    "id": "S03",
    "zone": "Siedlung",
    "split": "dev",
    "haus_id": "DEBY_LOD2_5482492",
    "dichte": 0.173,
    "gefaelle": 0.017,
    "altstadtrand": false,
    "flaeche_m2": 776.2,
    "grenze_quelle": "Parzellarkarte (vektorisiert), nicht amtlich"
   }
  },
  {
   "type": "Feature",
   "geometry": {
    "type": "Polygon",
    "coordinates": [
     [
      [
       698659.48,
       5486649.73
      ],
      [
       698657.78,
       5486646.93
      ],
      [
       698658.08,
       5486646.53
      ],
      [
       698676.78,
       5486635.53
      ],
      [
       698677.18,
       5486634.63
      ],
      [
       698657.38,
       5486601.83
      ],
      [
       698637.48,
       5486613.53
      ],
      [
       698632.58,
       5486605.63
      ],
      [
       698633.48,
       5486604.23
      ],
      [
       698623.48,
       5486587.93
      ],
      [
       698644.98,
       5486575.73
      ],
      [
       698650.18,
       5486583.73
      ],
      [
       698658.68,
       5486588.53
      ],
      [
       698685.08,
       5486632.53
      ],
      [
       698659.48,
       5486649.73
      ]
     ]
    ]
   },
   "properties": {
    "id": "S04",
    "zone": "Siedlung",
    "split": "test",
    "haus_id": "DEBY_LOD2_5482418",
    "dichte": 0.349,
    "gefaelle": 0.013,
    "altstadtrand": false,
    "flaeche_m2": 1192.8,
    "grenze_quelle": "Parzellarkarte (vektorisiert), nicht amtlich"
   }
  },
  {
   "type": "Feature",
   "geometry": {
    "type": "Polygon",
    "coordinates": [
     [
      [
       698427.57,
       5486830.13
      ],
      [
       698423.87,
       5486829.33
      ],
      [
       698418.87,
       5486827.13
      ],
      [
       698412.77,
       5486826.03
      ],
      [
       698411.87,
       5486789.83
      ],
      [
       698415.47,
       5486789.53
      ],
      [
       698416.17,
       5486796.33
      ],
      [
       698422.77,
       5486796.13
      ],
      [
       698426.87,
       5486820.63
      ],
      [
       698430.27,
       5486828.93
      ],
      [
       698427.57,
       5486830.13
      ]
     ]
    ]
   },
   "properties": {
    "id": "S05",
    "zone": "Siedlung",
    "split": "dev",
    "haus_id": "DEBY_LOD2_5482144",
    "dichte": 0.163,
    "gefaelle": 0.026,
    "altstadtrand": false,
    "flaeche_m2": 448.5,
    "grenze_quelle": "Parzellarkarte (vektorisiert), nicht amtlich"
   }
  },
  {
   "type": "Feature",
   "geometry": {
    "type": "Polygon",
    "coordinates": [
     [
      [
       699014.72,
       5486595.6
      ],
      [
       698997.32,
       5486561.6
      ],
      [
       699021.22,
       5486549.5
      ],
      [
       699036.42,
       5486584.6
      ],
      [
       699014.72,
       5486595.6
      ]
     ]
    ]
   },
   "properties": {
    "id": "S06",
    "zone": "Siedlung",
    "split": "dev",
    "haus_id": "DEBY_LOD2_5482514",
    "dichte": 0.148,
    "gefaelle": 0.022,
    "altstadtrand": false,
    "flaeche_m2": 976.0,
    "grenze_quelle": "Parzellarkarte (vektorisiert), nicht amtlich"
   }
  },
  {
   "type": "Feature",
   "geometry": {
    "type": "Polygon",
    "coordinates": [
     [
      [
       698632.73,
       5487731.9
      ],
      [
       698623.93,
       5487705.1
      ],
      [
       698653.13,
       5487695.5
      ],
      [
       698657.43,
       5487713.2
      ],
      [
       698657.03,
       5487713.7
      ],
      [
       698659.63,
       5487722.8
      ],
      [
       698632.73,
       5487731.9
      ]
     ]
    ]
   },
   "properties": {
    "id": "S07",
    "zone": "Siedlung",
    "split": "test",
    "haus_id": "DEBY_LOD2_5484261",
    "dichte": 0.117,
    "gefaelle": 0.055,
    "altstadtrand": false,
    "flaeche_m2": 829.0,
    "grenze_quelle": "Parzellarkarte (vektorisiert), nicht amtlich"
   }
  },
  {
   "type": "Feature",
   "geometry": {
    "type": "Polygon",
    "coordinates": [
     [
      [
       698521.13,
       5486676.98
      ],
      [
       698515.33,
       5486662.58
      ],
      [
       698530.43,
       5486651.78
      ],
      [
       698530.83,
       5486652.08
      ],
      [
       698536.13,
       5486647.68
      ],
      [
       698545.23,
       5486656.18
      ],
      [
       698528.53,
       5486674.18
      ],
      [
       698521.13,
       5486676.98
      ]
     ]
    ]
   },
   "properties": {
    "id": "S08",
    "zone": "Siedlung",
    "split": "dev",
    "haus_id": "DEBY_LOD2_5482398",
    "dichte": 0.151,
    "gefaelle": 0.022,
    "altstadtrand": false,
    "flaeche_m2": 431.4,
    "grenze_quelle": "Parzellarkarte (vektorisiert), nicht amtlich"
   }
  },
  {
   "type": "Feature",
   "geometry": {
    "type": "Polygon",
    "coordinates": [
     [
      [
       698698.76,
       5487579.03
      ],
      [
       698693.96,
       5487551.83
      ],
      [
       698714.56,
       5487550.03
      ],
      [
       698717.06,
       5487576.63
      ],
      [
       698698.76,
       5487579.03
      ]
     ]
    ]
   },
   "properties": {
    "id": "S09",
    "zone": "Siedlung",
    "split": "dev",
    "haus_id": "DEBY_LOD2_5484214",
    "dichte": 0.201,
    "gefaelle": 0.059,
    "altstadtrand": false,
    "flaeche_m2": 530.9,
    "grenze_quelle": "Parzellarkarte (vektorisiert), nicht amtlich"
   }
  },
  {
   "type": "Feature",
   "geometry": {
    "type": "Polygon",
    "coordinates": [
     [
      [
       698889.2,
       5487690.95
      ],
      [
       698871.0,
       5487663.45
      ],
      [
       698897.1,
       5487650.05
      ],
      [
       698910.0,
       5487660.95
      ],
      [
       698911.5,
       5487664.95
      ],
      [
       698911.4,
       5487669.15
      ],
      [
       698909.6,
       5487673.25
      ],
      [
       698907.4,
       5487675.65
      ],
      [
       698889.2,
       5487690.95
      ]
     ]
    ]
   },
   "properties": {
    "id": "S10",
    "zone": "Siedlung",
    "split": "dev",
    "haus_id": "DEBY_LOD2_5484243",
    "dichte": 0.13,
    "gefaelle": 0.038,
    "altstadtrand": false,
    "flaeche_m2": 928.2,
    "grenze_quelle": "Parzellarkarte (vektorisiert), nicht amtlich"
   }
  },
  {
   "type": "Feature",
   "geometry": {
    "type": "Polygon",
    "coordinates": [
     [
      [
       698973.0,
       5486793.76
      ],
      [
       698956.2,
       5486758.76
      ],
      [
       698979.1,
       5486750.06
      ],
      [
       698998.0,
       5486784.56
      ],
      [
       698975.5,
       5486793.56
      ],
      [
       698973.0,
       5486793.76
      ]
     ]
    ]
   },
   "properties": {
    "id": "S11",
    "zone": "Siedlung",
    "split": "test",
    "haus_id": "DEBY_LOD2_5482515",
    "dichte": 0.153,
    "gefaelle": 0.076,
    "altstadtrand": false,
    "flaeche_m2": 1001.0,
    "grenze_quelle": "Parzellarkarte (vektorisiert), nicht amtlich"
   }
  },
  {
   "type": "Feature",
   "geometry": {
    "type": "Polygon",
    "coordinates": [
     [
      [
       699981.47,
       5486123.24
      ],
      [
       699967.17,
       5486122.74
      ],
      [
       699967.37,
       5486119.74
      ],
      [
       699966.87,
       5486119.24
      ],
      [
       699957.87,
       5486118.14
      ],
      [
       699958.07,
       5486115.54
      ],
      [
       699957.57,
       5486115.04
      ],
      [
       699959.47,
       5486102.54
      ],
      [
       699985.07,
       5486107.34
      ],
      [
       699983.07,
       5486122.84
      ],
      [
       699981.47,
       5486123.24
      ]
     ]
    ]
   },
   "properties": {
    "id": "S12",
    "zone": "Siedlung",
    "split": "test",
    "haus_id": "DEBY_LOD2_5522239",
    "dichte": 0.14,
    "gefaelle": 0.029,
    "altstadtrand": false,
    "flaeche_m2": 430.6,
    "grenze_quelle": "Parzellarkarte (vektorisiert), nicht amtlich"
   }
  },
  {
   "type": "Feature",
   "geometry": {
    "type": "Polygon",
    "coordinates": [
     [
      [
       699833.39,
       5486352.42
      ],
      [
       699826.39,
       5486342.32
      ],
      [
       699824.89,
       5486341.32
      ],
      [
       699819.79,
       5486333.92
      ],
      [
       699820.09,
       5486333.32
      ],
      [
       699812.09,
       5486322.12
      ],
      [
       699832.49,
       5486308.92
      ],
      [
       699854.09,
       5486339.32
      ],
      [
       699833.39,
       5486352.42
      ]
     ]
    ]
   },
   "properties": {
    "id": "S13",
    "zone": "Siedlung",
    "split": "dev",
    "haus_id": "DEBY_LOD2_5522282",
    "dichte": 0.161,
    "gefaelle": 0.071,
    "altstadtrand": false,
    "flaeche_m2": 909.8,
    "grenze_quelle": "Parzellarkarte (vektorisiert), nicht amtlich"
   }
  },
  {
   "type": "Feature",
   "geometry": {
    "type": "Polygon",
    "coordinates": [
     [
      [
       699097.56,
       5486530.73
      ],
      [
       699074.36,
       5486505.23
      ],
      [
       699074.36,
       5486504.43
      ],
      [
       699091.96,
       5486498.53
      ],
      [
       699096.26,
       5486500.13
      ],
      [
       699092.46,
       5486513.03
      ],
      [
       699092.86,
       5486513.53
      ],
      [
       699100.16,
       5486506.43
      ],
      [
       699108.36,
       5486504.63
      ],
      [
       699111.26,
       5486518.23
      ],
      [
       699097.56,
       5486530.73
      ]
     ]
    ]
   },
   "properties": {
    "id": "S14",
    "zone": "Siedlung",
    "split": "dev",
    "haus_id": "DEBY_LOD2_5482513",
    "dichte": 0.204,
    "gefaelle": 0.036,
    "altstadtrand": false,
    "flaeche_m2": 597.7,
    "grenze_quelle": "Parzellarkarte (vektorisiert), nicht amtlich"
   }
  },
  {
   "type": "Feature",
   "geometry": {
    "type": "Polygon",
    "coordinates": [
     [
      [
       699264.19,
       5486356.65
      ],
      [
       699251.69,
       5486336.15
      ],
      [
       699286.29,
       5486316.55
      ],
      [
       699288.69,
       5486315.85
      ],
      [
       699291.89,
       5486316.45
      ],
      [
       699294.09,
       5486318.25
      ],
      [
       699295.39,
       5486320.55
      ],
      [
       699298.09,
       5486330.45
      ],
      [
       699301.59,
       5486336.25
      ],
      [
       699298.19,
       5486338.15
      ],
      [
       699297.29,
       5486339.35
      ],
      [
       699289.79,
       5486343.35
      ],
      [
       699289.39,
       5486343.05
      ],
      [
       699288.69,
       5486343.95
      ],
      [
       699288.09,
       5486343.65
      ],
      [
       699287.49,
       5486344.65
      ],
      [
       699286.39,
       5486344.55
      ],
      [
       699264.19,
       5486356.65
      ]
     ]
    ]
   },
   "properties": {
    "id": "S15",
    "zone": "Siedlung",
    "split": "dev",
    "haus_id": "DEBY_LOD2_5521911",
    "dichte": 0.233,
    "gefaelle": 0.012,
    "altstadtrand": false,
    "flaeche_m2": 1073.1,
    "grenze_quelle": "Parzellarkarte (vektorisiert), nicht amtlich"
   }
  },
  {
   "type": "Feature",
   "geometry": {
    "type": "Polygon",
    "coordinates": [
     [
      [
       698769.86,
       5487576.56
      ],
      [
       698769.16,
       5487554.66
      ],
      [
       698799.46,
       5487552.16
      ],
      [
       698802.26,
       5487574.56
      ],
      [
       698769.86,
       5487576.56
      ]
     ]
    ]
   },
   "properties": {
    "id": "S16",
    "zone": "Siedlung",
    "split": "test",
    "haus_id": "DEBY_LOD2_33226376",
    "dichte": 0.182,
    "gefaelle": 0.038,
    "altstadtrand": false,
    "flaeche_m2": 698.3,
    "grenze_quelle": "Parzellarkarte (vektorisiert), nicht amtlich"
   }
  },
  {
   "type": "Feature",
   "geometry": {
    "type": "Polygon",
    "coordinates": [
     [
      [
       698674.13,
       5487974.62
      ],
      [
       698664.33,
       5487974.52
      ],
      [
       698663.83,
       5487970.82
      ],
      [
       698651.63,
       5487970.92
      ],
      [
       698652.63,
       5487942.22
      ],
      [
       698676.13,
       5487944.62
      ],
      [
       698678.23,
       5487945.42
      ],
      [
       698679.83,
       5487947.02
      ],
      [
       698680.83,
       5487949.02
      ],
      [
       698680.93,
       5487952.02
      ],
      [
       698674.13,
       5487974.62
      ]
     ]
    ]
   },
   "properties": {
    "id": "S17",
    "zone": "Siedlung",
    "split": "dev",
    "haus_id": "DEBY_LOD2_5485879",
    "dichte": 0.186,
    "gefaelle": 0.046,
    "altstadtrand": false,
    "flaeche_m2": 763.8,
    "grenze_quelle": "Parzellarkarte (vektorisiert), nicht amtlich"
   }
  },
  {
   "type": "Feature",
   "geometry": {
    "type": "Polygon",
    "coordinates": [
     [
      [
       699095.53,
       5486687.72
      ],
      [
       699089.93,
       5486679.82
      ],
      [
       699085.53,
       5486682.72
      ],
      [
       699084.93,
       5486682.52
      ],
      [
       699066.33,
       5486653.62
      ],
      [
       699061.93,
       5486643.82
      ],
      [
       699077.43,
       5486633.82
      ],
      [
       699082.33,
       5486633.72
      ],
      [
       699085.43,
       5486636.02
      ],
      [
       699105.03,
       5486677.82
      ],
      [
       699098.43,
       5486681.22
      ],
      [
       699099.93,
       5486684.82
      ],
      [
       699095.53,
       5486687.72
      ]
     ]
    ]
   },
   "properties": {
    "id": "S18",
    "zone": "Siedlung",
    "split": "dev",
    "haus_id": "DEBY_LOD2_5482503",
    "dichte": 0.239,
    "gefaelle": 0.026,
    "altstadtrand": false,
    "flaeche_m2": 1145.7,
    "grenze_quelle": "Parzellarkarte (vektorisiert), nicht amtlich"
   }
  },
  {
   "type": "Feature",
   "geometry": {
    "type": "Polygon",
    "coordinates": [
     [
      [
       698790.89,
       5486119.43
      ],
      [
       698793.79,
       5486096.33
      ],
      [
       698823.39,
       5486094.23
      ],
      [
       698822.69,
       5486116.93
      ],
      [
       698790.89,
       5486119.43
      ]
     ]
    ]
   },
   "properties": {
    "id": "S19",
    "zone": "Siedlung",
    "split": "dev",
    "haus_id": "DEBY_LOD2_5482666",
    "dichte": 0.172,
    "gefaelle": 0.032,
    "altstadtrand": false,
    "flaeche_m2": 698.9,
    "grenze_quelle": "Parzellarkarte (vektorisiert), nicht amtlich"
   }
  },
  {
   "type": "Feature",
   "geometry": {
    "type": "Polygon",
    "coordinates": [
     [
      [
       699125.57,
       5486127.01
      ],
      [
       699124.17,
       5486119.81
      ],
      [
       699120.07,
       5486116.61
      ],
      [
       699117.87,
       5486100.71
      ],
      [
       699120.27,
       5486096.81
      ],
      [
       699133.47,
       5486090.61
      ],
      [
       699137.27,
       5486090.71
      ],
      [
       699140.77,
       5486093.31
      ],
      [
       699140.97,
       5486094.41
      ],
      [
       699143.77,
       5486097.51
      ],
      [
       699146.97,
       5486120.31
      ],
      [
       699138.37,
       5486121.71
      ],
      [
       699138.07,
       5486125.21
      ],
      [
       699125.57,
       5486127.01
      ]
     ]
    ]
   },
   "properties": {
    "id": "S20",
    "zone": "Siedlung",
    "split": "test",
    "haus_id": "DEBY_LOD2_108356340",
    "dichte": 0.191,
    "gefaelle": 0.068,
    "altstadtrand": false,
    "flaeche_m2": 774.1,
    "grenze_quelle": "Parzellarkarte (vektorisiert), nicht amtlich"
   }
  },
  {
   "type": "Feature",
   "geometry": {
    "type": "Polygon",
    "coordinates": [
     [
      [
       699535.59,
       5486911.22
      ],
      [
       699500.79,
       5486884.92
      ],
      [
       699514.69,
       5486866.22
      ],
      [
       699549.69,
       5486892.42
      ],
      [
       699535.59,
       5486911.22
      ]
     ]
    ]
   },
   "properties": {
    "id": "H01",
    "zone": "Hang",
    "split": "dev",
    "haus_id": "DEBY_LOD2_5523316",
    "dichte": 0.111,
    "gefaelle": 0.211,
    "altstadtrand": false,
    "flaeche_m2": 1021.9,
    "grenze_quelle": "Parzellarkarte (vektorisiert), nicht amtlich"
   }
  },
  {
   "type": "Feature",
   "geometry": {
    "type": "Polygon",
    "coordinates": [
     [
      [
       698032.38,
       5487779.27
      ],
      [
       698026.68,
       5487748.87
      ],
      [
       698039.28,
       5487744.67
      ],
      [
       698046.68,
       5487775.57
      ],
      [
       698032.38,
       5487779.27
      ]
     ]
    ]
   },
   "properties": {
    "id": "H02",
    "zone": "Hang",
    "split": "dev",
    "haus_id": "DEBY_LOD2_5449661",
    "dichte": 0.202,
    "gefaelle": 0.091,
    "altstadtrand": false,
    "flaeche_m2": 438.1,
    "grenze_quelle": "Parzellarkarte (vektorisiert), nicht amtlich"
   }
  },
  {
   "type": "Feature",
   "geometry": {
    "type": "Polygon",
    "coordinates": [
     [
      [
       699410.39,
       5486975.24
      ],
      [
       699381.09,
       5486956.84
      ],
      [
       699392.59,
       5486938.34
      ],
      [
       699422.89,
       5486957.24
      ],
      [
       699410.39,
       5486975.24
      ]
     ]
    ]
   },
   "properties": {
    "id": "H03",
    "zone": "Hang",
    "split": "dev",
    "haus_id": "DEBY_LOD2_21429786",
    "dichte": 0.176,
    "gefaelle": 0.248,
    "altstadtrand": false,
    "flaeche_m2": 767.7,
    "grenze_quelle": "Parzellarkarte (vektorisiert), nicht amtlich"
   }
  },
  {
   "type": "Feature",
   "geometry": {
    "type": "Polygon",
    "coordinates": [
     [
      [
       699629.88,
       5486654.85
      ],
      [
       699612.98,
       5486633.65
      ],
      [
       699616.78,
       5486630.25
      ],
      [
       699613.18,
       5486625.75
      ],
      [
       699614.58,
       5486625.15
      ],
      [
       699629.38,
       5486612.35
      ],
      [
       699649.48,
       5486638.45
      ],
      [
       699629.88,
       5486654.85
      ]
     ]
    ]
   },
   "properties": {
    "id": "H04",
    "zone": "Hang",
    "split": "test",
    "haus_id": "DEBY_LOD2_5522091",
    "dichte": 0.216,
    "gefaelle": 0.133,
    "altstadtrand": false,
    "flaeche_m2": 817.9,
    "grenze_quelle": "Parzellarkarte (vektorisiert), nicht amtlich"
   }
  },
  {
   "type": "Feature",
   "geometry": {
    "type": "Polygon",
    "coordinates": [
     [
      [
       698734.8,
       5486152.03
      ],
      [
       698720.3,
       5486151.13
      ],
      [
       698720.8,
       5486148.13
      ],
      [
       698718.8,
       5486147.33
      ],
      [
       698719.3,
       5486144.33
      ],
      [
       698716.8,
       5486143.63
      ],
      [
       698719.9,
       5486125.53
      ],
      [
       698738.5,
       5486127.63
      ],
      [
       698736.0,
       5486151.63
      ],
      [
       698734.8,
       5486152.03
      ]
     ]
    ]
   },
   "properties": {
    "id": "H05",
    "zone": "Hang",
    "split": "test",
    "haus_id": "DEBY_LOD2_5482300",
    "dichte": 0.17,
    "gefaelle": 0.087,
    "altstadtrand": false,
    "flaeche_m2": 465.3,
    "grenze_quelle": "Parzellarkarte (vektorisiert), nicht amtlich"
   }
  },
  {
   "type": "Feature",
   "geometry": {
    "type": "Polygon",
    "coordinates": [
     [
      [
       698589.44,
       5487898.54
      ],
      [
       698558.84,
       5487895.54
      ],
      [
       698564.64,
       5487866.44
      ],
      [
       698591.64,
       5487868.24
      ],
      [
       698590.04,
       5487897.74
      ],
      [
       698589.44,
       5487898.54
      ]
     ]
    ]
   },
   "properties": {
    "id": "H06",
    "zone": "Hang",
    "split": "test",
    "haus_id": "DEBY_LOD2_5485873",
    "dichte": 0.185,
    "gefaelle": 0.117,
    "altstadtrand": false,
    "flaeche_m2": 873.2,
    "grenze_quelle": "Parzellarkarte (vektorisiert), nicht amtlich"
   }
  },
  {
   "type": "Feature",
   "geometry": {
    "type": "Polygon",
    "coordinates": [
     [
      [
       698401.62,
       5487653.15
      ],
      [
       698398.72,
       5487629.85
      ],
      [
       698435.42,
       5487623.55
      ],
      [
       698439.42,
       5487646.15
      ],
      [
       698427.72,
       5487648.35
      ],
      [
       698427.22,
       5487647.85
      ],
      [
       698422.82,
       5487648.35
      ],
      [
       698419.02,
       5487649.35
      ],
      [
       698418.22,
       5487650.15
      ],
      [
       698401.62,
       5487653.15
      ]
     ]
    ]
   },
   "properties": {
    "id": "H07",
    "zone": "Hang",
    "split": "test",
    "haus_id": "DEBY_LOD2_5484157",
    "dichte": 0.207,
    "gefaelle": 0.112,
    "altstadtrand": false,
    "flaeche_m2": 872.4,
    "grenze_quelle": "Parzellarkarte (vektorisiert), nicht amtlich"
   }
  },
  {
   "type": "Feature",
   "geometry": {
    "type": "Polygon",
    "coordinates": [
     [
      [
       698075.89,
       5487484.49
      ],
      [
       698066.49,
       5487477.29
      ],
      [
       698095.79,
       5487436.69
      ],
      [
       698105.49,
       5487440.19
      ],
      [
       698105.79,
       5487440.59
      ],
      [
       698104.19,
       5487442.99
      ],
      [
       698075.89,
       5487484.49
      ]
     ]
    ]
   },
   "properties": {
    "id": "H08",
    "zone": "Hang",
    "split": "dev",
    "haus_id": "DEBY_LOD2_5484472",
    "dichte": 0.181,
    "gefaelle": 0.101,
    "altstadtrand": false,
    "flaeche_m2": 576.3,
    "grenze_quelle": "Parzellarkarte (vektorisiert), nicht amtlich"
   }
  },
  {
   "type": "Feature",
   "geometry": {
    "type": "Polygon",
    "coordinates": [
     [
      [
       698875.58,
       5487619.12
      ],
      [
       698868.88,
       5487612.62
      ],
      [
       698855.98,
       5487605.72
      ],
      [
       698848.48,
       5487600.02
      ],
      [
       698870.58,
       5487579.82
      ],
      [
       698883.78,
       5487587.52
      ],
      [
       698891.08,
       5487595.82
      ],
      [
       698897.88,
       5487605.32
      ],
      [
       698875.58,
       5487619.12
      ]
     ]
    ]
   },
   "properties": {
    "id": "H09",
    "zone": "Hang",
    "split": "dev",
    "haus_id": "DEBY_LOD2_5484248",
    "dichte": 0.099,
    "gefaelle": 0.081,
    "altstadtrand": false,
    "flaeche_m2": 1013.9,
    "grenze_quelle": "Parzellarkarte (vektorisiert), nicht amtlich"
   }
  },
  {
   "type": "Feature",
   "geometry": {
    "type": "Polygon",
    "coordinates": [
     [
      [
       698115.41,
       5487627.36
      ],
      [
       698113.11,
       5487621.56
      ],
      [
       698117.11,
       5487620.06
      ],
      [
       698117.51,
       5487619.26
      ],
      [
       698114.51,
       5487611.06
      ],
      [
       698129.31,
       5487604.16
      ],
      [
       698135.11,
       5487619.56
      ],
      [
       698115.41,
       5487627.36
      ]
     ]
    ]
   },
   "properties": {
    "id": "H10",
    "zone": "Hang",
    "split": "dev",
    "haus_id": "DEBY_LOD2_5484133",
    "dichte": 0.182,
    "gefaelle": 0.081,
    "altstadtrand": false,
    "flaeche_m2": 291.4,
    "grenze_quelle": "Parzellarkarte (vektorisiert), nicht amtlich"
   }
  },
  {
   "type": "Feature",
   "geometry": {
    "type": "Polygon",
    "coordinates": [
     [
      [
       699253.11,
       5487269.05
      ],
      [
       699219.81,
       5487265.65
      ],
      [
       699218.91,
       5487240.35
      ],
      [
       699233.41,
       5487240.85
      ],
      [
       699233.81,
       5487240.35
      ],
      [
       699232.91,
       5487238.45
      ],
      [
       699238.61,
       5487233.85
      ],
      [
       699237.61,
       5487229.95
      ],
      [
       699240.11,
       5487232.65
      ],
      [
       699248.91,
       5487225.65
      ],
      [
       699269.11,
       5487255.85
      ],
      [
       699257.01,
       5487259.85
      ],
      [
       699256.61,
       5487260.35
      ],
      [
       699258.11,
       5487264.45
      ],
      [
       699258.11,
       5487266.05
      ],
      [
       699253.61,
       5487267.85
      ],
      [
       699253.11,
       5487269.05
      ]
     ]
    ]
   },
   "properties": {
    "id": "H11",
    "zone": "Hang",
    "split": "dev",
    "haus_id": "DEBY_LOD2_5523220",
    "dichte": 0.108,
    "gefaelle": 0.133,
    "altstadtrand": false,
    "flaeche_m2": 1354.8,
    "grenze_quelle": "Parzellarkarte (vektorisiert), nicht amtlich"
   }
  },
  {
   "type": "Feature",
   "geometry": {
    "type": "Polygon",
    "coordinates": [
     [
      [
       698527.92,
       5487631.71
      ],
      [
       698525.32,
       5487625.01
      ],
      [
       698520.02,
       5487626.41
      ],
      [
       698516.42,
       5487615.41
      ],
      [
       698534.02,
       5487608.91
      ],
      [
       698537.12,
       5487628.51
      ],
      [
       698527.92,
       5487631.71
      ]
     ]
    ]
   },
   "properties": {
    "id": "H12",
    "zone": "Hang",
    "split": "dev",
    "haus_id": "DEBY_LOD2_5484186",
    "dichte": 0.158,
    "gefaelle": 0.08,
    "altstadtrand": false,
    "flaeche_m2": 290.3,
    "grenze_quelle": "Parzellarkarte (vektorisiert), nicht amtlich"
   }
  },
  {
   "type": "Feature",
   "geometry": {
    "type": "Polygon",
    "coordinates": [
     [
      [
       699153.78,
       5487143.61
      ],
      [
       699146.68,
       5487113.91
      ],
      [
       699152.08,
       5487112.51
      ],
      [
       699157.28,
       5487112.11
      ],
      [
       699167.38,
       5487113.01
      ],
      [
       699172.48,
       5487123.61
      ],
      [
       699169.08,
       5487124.51
      ],
      [
       699168.48,
       5487125.31
      ],
      [
       699169.48,
       5487127.81
      ],
      [
       699171.58,
       5487127.61
      ],
      [
       699173.48,
       5487136.31
      ],
      [
       699166.88,
       5487138.01
      ],
      [
       699165.68,
       5487136.61
      ],
      [
       699161.28,
       5487137.61
      ],
      [
       699160.88,
       5487138.11
      ],
      [
       699161.68,
       5487141.91
      ],
      [
       699153.78,
       5487143.61
      ]
     ]
    ]
   },
   "properties": {
    "id": "H13",
    "zone": "Hang",
    "split": "dev",
    "haus_id": "DEBY_LOD2_5523214",
    "dichte": 0.202,
    "gefaelle": 0.108,
    "altstadtrand": false,
    "flaeche_m2": 574.1,
    "grenze_quelle": "Parzellarkarte (vektorisiert), nicht amtlich"
   }
  },
  {
   "type": "Feature",
   "geometry": {
    "type": "Polygon",
    "coordinates": [
     [
      [
       699440.03,
       5487066.47
      ],
      [
       699408.13,
       5487043.27
      ],
      [
       699423.03,
       5487022.37
      ],
      [
       699455.13,
       5487045.77
      ],
      [
       699440.03,
       5487066.47
      ]
     ]
    ]
   },
   "properties": {
    "id": "H14",
    "zone": "Hang",
    "split": "test",
    "haus_id": "DEBY_LOD2_5523297",
    "dichte": 0.135,
    "gefaelle": 0.246,
    "altstadtrand": false,
    "flaeche_m2": 1015.1,
    "grenze_quelle": "Parzellarkarte (vektorisiert), nicht amtlich"
   }
  },
  {
   "type": "Feature",
   "geometry": {
    "type": "Polygon",
    "coordinates": [
     [
      [
       698823.23,
       5487138.77
      ],
      [
       698816.73,
       5487104.27
      ],
      [
       698842.83,
       5487097.97
      ],
      [
       698849.63,
       5487133.67
      ],
      [
       698823.23,
       5487138.77
      ]
     ]
    ]
   },
   "properties": {
    "id": "H15",
    "zone": "Hang",
    "split": "dev",
    "haus_id": "DEBY_LOD2_5484387",
    "dichte": 0.218,
    "gefaelle": 0.084,
    "altstadtrand": false,
    "flaeche_m2": 959.3,
    "grenze_quelle": "Parzellarkarte (vektorisiert), nicht amtlich"
   }
  },
  {
   "type": "Feature",
   "geometry": {
    "type": "Polygon",
    "coordinates": [
     [
      [
       698149.22,
       5486140.39
      ],
      [
       698136.02,
       5486133.79
      ],
      [
       698130.02,
       5486132.49
      ],
      [
       698127.52,
       5486102.19
      ],
      [
       698129.22,
       5486097.09
      ],
      [
       698132.82,
       5486093.89
      ],
      [
       698137.12,
       5486092.89
      ],
      [
       698140.62,
       5486092.99
      ],
      [
       698155.02,
       5486094.99
      ],
      [
       698161.62,
       5486096.69
      ],
      [
       698149.22,
       5486140.39
      ]
     ]
    ]
   },
   "properties": {
    "id": "H16",
    "zone": "Hang",
    "split": "dev",
    "haus_id": "DEBY_LOD2_5482323",
    "dichte": 0.117,
    "gefaelle": 0.145,
    "altstadtrand": false,
    "flaeche_m2": 1145.7,
    "grenze_quelle": "Parzellarkarte (vektorisiert), nicht amtlich"
   }
  },
  {
   "type": "Feature",
   "geometry": {
    "type": "Polygon",
    "coordinates": [
     [
      [
       698517.88,
       5487496.62
      ],
      [
       698515.18,
       5487470.32
      ],
      [
       698534.28,
       5487465.02
      ],
      [
       698535.38,
       5487457.22
      ],
      [
       698536.38,
       5487456.82
      ],
      [
       698537.58,
       5487472.62
      ],
      [
       698534.28,
       5487472.82
      ],
      [
       698533.78,
       5487473.42
      ],
      [
       698532.38,
       5487489.92
      ],
      [
       698517.88,
       5487496.62
      ]
     ]
    ]
   },
   "properties": {
    "id": "H17",
    "zone": "Hang",
    "split": "test",
    "haus_id": "DEBY_LOD2_5484056",
    "dichte": 0.209,
    "gefaelle": 0.181,
    "altstadtrand": false,
    "flaeche_m2": 474.2,
    "grenze_quelle": "Parzellarkarte (vektorisiert), nicht amtlich"
   }
  },
  {
   "type": "Feature",
   "geometry": {
    "type": "Polygon",
    "coordinates": [
     [
      [
       699284.68,
       5487091.15
      ],
      [
       699272.08,
       5487083.55
      ],
      [
       699265.28,
       5487075.95
      ],
      [
       699262.78,
       5487070.75
      ],
      [
       699261.38,
       5487065.05
      ],
      [
       699261.18,
       5487057.15
      ],
      [
       699261.68,
       5487054.75
      ],
      [
       699294.18,
       5487075.05
      ],
      [
       699293.48,
       5487077.75
      ],
      [
       699284.68,
       5487091.15
      ]
     ]
    ]
   },
   "properties": {
    "id": "H18",
    "zone": "Hang",
    "split": "dev",
    "haus_id": "DEBY_LOD2_5523275",
    "dichte": 0.214,
    "gefaelle": 0.15,
    "altstadtrand": false,
    "flaeche_m2": 593.0,
    "grenze_quelle": "Parzellarkarte (vektorisiert), nicht amtlich"
   }
  },
  {
   "type": "Feature",
   "geometry": {
    "type": "Polygon",
    "coordinates": [
     [
      [
       699220.5,
       5487040.74
      ],
      [
       699202.8,
       5487006.14
      ],
      [
       699221.4,
       5486996.64
      ],
      [
       699223.8,
       5487001.54
      ],
      [
       699230.6,
       5486998.54
      ],
      [
       699244.4,
       5487026.24
      ],
      [
       699220.5,
       5487040.74
      ]
     ]
    ]
   },
   "properties": {
    "id": "H19",
    "zone": "Hang",
    "split": "dev",
    "haus_id": "DEBY_LOD2_5523259",
    "dichte": 0.208,
    "gefaelle": 0.138,
    "altstadtrand": false,
    "flaeche_m2": 1020.4,
    "grenze_quelle": "Parzellarkarte (vektorisiert), nicht amtlich"
   }
  },
  {
   "type": "Feature",
   "geometry": {
    "type": "Polygon",
    "coordinates": [
     [
      [
       698642.57,
       5486125.34
      ],
      [
       698637.47,
       5486124.94
      ],
      [
       698629.27,
       5486075.24
      ],
      [
       698647.07,
       5486072.34
      ],
      [
       698657.67,
       5486124.94
      ],
      [
       698642.57,
       5486125.34
      ]
     ]
    ]
   },
   "properties": {
    "id": "H20",
    "zone": "Hang",
    "split": "test",
    "haus_id": "DEBY_LOD2_11308",
    "dichte": 0.135,
    "gefaelle": 0.172,
    "altstadtrand": false,
    "flaeche_m2": 989.5,
    "grenze_quelle": "Parzellarkarte (vektorisiert), nicht amtlich"
   }
  }
 ]
}